     2.100          NAVIGATION                              RINEX VERSION / TYPE
fic2rin                                 09/17/2010 00:06:48 PGM / RUN BY / DATE
                                                            END OF HEADER
 1 10  9 16 18  0  0.0 -.163125339895D-03 -.386535248253D-11  .000000000000D+00
     .140000000000D+02 -.959062500000D+02  .450947355196D-08  .274267118443D+01
    -.493228435516D-05  .449085712899D-02  .711157917976D-05  .515362992096D+04
     .410400000000D+06 -.130385160446D-07  .154685452404D+01 -.651925802231D-07
     .965713314567D+00  .246812500000D+03  .958223456345D+00 -.798176104381D-08
     .307155651409D-10  .100000000000D+01  .160100000000D+04  .000000000000D+00
     .240000000000D+01  .630000000000D+02 -.190921127796D-07  .140000000000D+02
     .403206000000D+06  .400000000000D+01
 2 10  9 16 18  0  0.0  .288940034807D-03  .284217094304D-11  .000000000000D+00
     .980000000000D+02  .134687500000D+02  .530093509094D-08  .130272646200D+01
     .840052962303D-06  .968189514242D-02  .670552253723D-05  .515363236809D+04
     .410400000000D+06  .633299350739D-07 -.265476856101D+01  .130385160446D-06
     .939836616859D+00  .238656250000D+03  .313104035338D+01 -.838749222986D-08
    -.203937066226D-09  .100000000000D+01  .160100000000D+04  .000000000000D+00
     .240000000000D+01  .000000000000D+00 -.172294676304D-07  .980000000000D+02
     .403206000000D+06  .400000000000D+01
 3 10  9 16 18  0  0.0  .609221868217D-03  .500222085975D-11  .000000000000D+00
     .550000000000D+02 -.430312500000D+02  .543951229181D-08  .117864782602D+01
    -.208057463169D-05  .136410474079D-01  .970251858234D-05  .515360921669D+04
     .410400000000D+06 -.245869159698D-06  .247475709115D+01  .158324837685D-06
     .927796689885D+00  .179687500000D+03  .103505768839D+01 -.854285584424D-08
     .176793078427D-09  .100000000000D+01  .160100000000D+04  .000000000000D+00
     .240000000000D+01  .000000000000D+00 -.465661287308D-08  .550000000000D+02
     .403206000000D+06  .400000000000D+01
 4 10  9 16 18  0  0.0  .171379651874D-03  .920863385545D-11  .000000000000D+00
     .620000000000D+02  .893750000000D+01  .523593238331D-08 -.195293851472D+01
     .420957803726D-06  .928837002721D-02  .658258795738D-05  .515374388695D+04
     .410400000000D+06  .113621354103D-06 -.263705256017D+01 -.633299350739D-07
     .938952980692D+00  .240375000000D+03  .641739591921D+00 -.825534386821D-08
     .503592405216D-10  .100000000000D+01  .160100000000D+04  .000000000000D+00
     .240000000000D+01  .000000000000D+00 -.605359673500D-08  .620000000000D+02
     .403206000000D+06  .400000000000D+01
 5 10  9 16 18  0  0.0 -.376072712243D-04 -.522959453519D-11  .000000000000D+00
     .790000000000D+02  .249375000000D+02  .456304721209D-08  .296943771067D+01
     .123493373394D-05  .194883451331D-02  .780634582043D-05  .515378796768D+04
     .410400000000D+06  .186264514923D-07 -.159410036310D+01  .335276126862D-07
     .956667977976D+00  .229062500000D+03  .158287445056D+00 -.803247744207D-08
    -.351443210449D-09  .100000000000D+01  .160100000000D+04  .000000000000D+00
     .240000000000D+01  .000000000000D+00 -.884756445885D-08  .790000000000D+02
     .403206000000D+06  .400000000000D+01
 6 10  9 16 18  0  0.0  .491324812174D-03 -.150066625793D-10  .000000000000D+00
     .930000000000D+02 -.334687500000D+02  .515628620859D-08 -.291627288604D+01
    -.159069895744D-05  .618604454212D-02  .921636819839D-05  .515365862465D+04
     .410400000000D+06 -.149011611938D-07  .254628664619D+01  .171363353729D-06
     .935116422438D+00  .185750000000D+03 -.957938090767D+00 -.811212361680D-08
     .301083969927D-09  .100000000000D+01  .160100000000D+04  .000000000000D+00
     .240000000000D+01  .000000000000D+00 -.512227416039D-08  .930000000000D+02
     .403206000000D+06  .400000000000D+01
 7 10  9 16 18  0  0.0 -.182539224625D-05  .113686837722D-12  .000000000000D+00
     .960000000000D+02  .937500000000D+01  .435982446133D-08 -.358679389899D+00
     .493600964546D-06  .406795018353D-02  .364147126675D-05  .515369143105D+04
     .410400000000D+06  .100582838058D-06  .507664863034D+00  .260770320892D-07
     .972790868347D+00  .312750000000D+03  .308721849164D+01 -.819927010394D-08
     .181793286706D-09  .100000000000D+01  .160100000000D+04  .000000000000D+00
     .240000000000D+01  .000000000000D+00 -.102445483208D-07  .960000000000D+02
     .403206000000D+06  .400000000000D+01
 9 10  9 16 18  0  0.0  .308318994939D-04  .227373675443D-11  .000000000000D+00
     .153000000000D+03  .168750000000D+01  .423839083170D-08 -.109293687771D+01
     .469386577606D-06  .170697360300D-01  .459142029285D-05  .515370229530D+04
     .410400000000D+06 -.193715095520D-06  .477322929730D+00  .227242708206D-06
     .981851224719D+00  .308062500000D+03  .155066392175D+01 -.825998691875D-08
     .195722438339D-09  .100000000000D+01  .160100000000D+04  .000000000000D+00
     .240000000000D+01  .000000000000D+00 -.558793544769D-08  .153000000000D+03
     .403206000000D+06  .400000000000D+01
10 10  9 16 18  0  0.0 -.525373034179D-04 -.102318153949D-11  .000000000000D+00
     .400000000000D+02  .206875000000D+02  .459340561950D-08  .309670835052D+01
     .103376805782D-05  .933314627036D-02  .822730362415D-05  .515351810265D+04
     .410400000000D+06  .186264514923D-08 -.156896566915D+01 -.577419996262D-07
     .951666588756D+00  .215843750000D+03  .661523301661D+00 -.793354474970D-08
    -.303226916332D-09  .100000000000D+01  .160100000000D+04  .000000000000D+00
     .340000000000D+01  .000000000000D+00 -.279396772385D-08  .400000000000D+02
     .403206000000D+06  .400000000000D+01
11 10  9 16 18  0  0.0 -.899941660464D-04 -.261479726760D-11  .000000000000D+00
     .960000000000D+02  .166562500000D+02  .657455957108D-08 -.492190988953D+00
     .892207026482D-06  .111618166557D-01  .650249421597D-05  .515376197052D+04
     .410400000000D+06 -.204890966415D-07 -.287899537808D+01  .178813934326D-06
     .888585160339D+00  .212562500000D+03  .842113582371D+00 -.912430863551D-08
     .428589281035D-11  .100000000000D+01  .160100000000D+04  .000000000000D+00
     .340000000000D+01  .000000000000D+00 -.116415321827D-07  .960000000000D+02
     .403206000000D+06  .400000000000D+01
12 10  9 16 18  0  0.0 -.723726116121D-04  .375166564481D-11  .000000000000D+00
     .470000000000D+02 -.710625000000D+02  .446554315065D-08 -.404433539675D+00
    -.371411442757D-05  .331635808107D-02  .685267150402D-05  .515360996628D+04
     .410400000000D+06  .279396772385D-07  .156193191074D+01 -.316649675369D-07
     .971814582652D+00  .254125000000D+03 -.329261960842D+00 -.806212153401D-08
     .907180644858D-10  .100000000000D+01  .160100000000D+04  .000000000000D+00
     .240000000000D+01  .000000000000D+00 -.116415321827D-07  .470000000000D+02
     .403206000000D+06  .400000000000D+01
13 10  9 16 18  0  0.0  .297260470688D-03 -.909494701773D-12  .000000000000D+00
     .590000000000D+02  .657187500000D+02  .356979155329D-08  .204977807250D+01
     .344403088093D-05  .435399392154D-02  .743009150028D-05  .515370735931D+04
     .410400000000D+06  .800937414169D-07 -.471025149322D+00  .167638063431D-07
     .992140673659D+00  .250343750000D+03  .180585939062D+01 -.760245953010D-08
     .864321716755D-10  .100000000000D+01  .160100000000D+04  .000000000000D+00
     .240000000000D+01  .000000000000D+00 -.107102096081D-07  .590000000000D+02
     .403206000000D+06  .400000000000D+01
14 10  9 16 18  0  0.0  .892379321158D-04  .375166564481D-11  .000000000000D+00
     .730000000000D+02  .750937500000D+02  .370836875416D-08  .198912889168D+01
     .393204391003D-05  .561856967397D-02  .726617872715D-05  .515357682419D+04
     .410400000000D+06 -.521540641785D-07 -.493540860038D+00 -.149011611938D-06
     .985316804503D+00  .249843750000D+03 -.212554544520D+01 -.777603818892D-08
     .104647216119D-09  .100000000000D+01  .160100000000D+04  .000000000000D+00
     .240000000000D+01  .000000000000D+00 -.884756445885D-08  .730000000000D+02
     .403206000000D+06  .400000000000D+01
15 10  9 16 18  0  0.0 -.208305660635D-03  .534328137292D-11  .000000000000D+00
     .180000000000D+02  .618437500000D+02  .447161483213D-08  .186660572236D+01
     .325031578541D-05  .271859345958D-02  .694580376148D-05  .515381872940D+04
     .410400000000D+06 -.242143869400D-07 -.561163455350D+00  .298023223877D-07
     .952730033647D+00  .241000000000D+03 -.207723184710D+00 -.807319342377D-08
    -.371444043564D-10  .100000000000D+01  .160100000000D+04  .000000000000D+00
     .240000000000D+01  .000000000000D+00 -.977888703346D-08  .180000000000D+02
     .403206000000D+06  .400000000000D+01
17 10  9 16 18  0  0.0  .170979648829D-03  .147792889038D-11  .000000000000D+00
     .260000000000D+02 -.268437500000D+02  .451018786743D-08  .252044054249D+01
    -.143982470036D-05  .558974582236D-02  .918470323086D-05  .515366071892D+04
     .410400000000D+06 -.800937414169D-07  .262275306259D+01 -.134110450745D-06
     .960730235231D+00  .202843750000D+03 -.250923921136D+01 -.782532595624D-08
     .204294223960D-09  .100000000000D+01  .160100000000D+04  .000000000000D+00
     .240000000000D+01  .000000000000D+00 -.102445483208D-07  .260000000000D+02
     .403206000000D+06  .400000000000D+01
18 10  9 16 18  0  0.0  .934363342822D-04  .227373675443D-11  .000000000000D+00
     .380000000000D+02  .254375000000D+02  .490056127090D-08 -.239776099308D+01
     .133365392685D-05  .118580107810D-01  .774115324020D-05  .515372539711D+04
     .410400000000D+06  .106170773506D-06 -.157071613401D+01 -.128522515297D-06
     .935619066461D+00  .217031250000D+03 -.229536236269D+01 -.801140513575D-08
    -.254653464482D-09  .100000000000D+01  .160100000000D+04  .000000000000D+00
     .240000000000D+01  .000000000000D+00 -.107102096081D-07  .380000000000D+02
     .403206000000D+06  .400000000000D+01
